{
  "type": "FeatureCollection",
  "features": [
    {
      "type": "Feature",
      "properties": {
        "norad_id": 30629,
        "name": "FENGYUN 1C DEB",
        "group": "fengyun-1c-debris",
        "lat": 61.4875688929419,
        "lon": -83.57913780855353,
        "alt_km": 688.890318479489,
        "timestamp": "2025-12-09T09:46:47.923453+00:00",
        "meta_object_name": "FENGYUN 1C DEB",
        "meta_object_id": "1999-025ANL",
        "meta_epoch": "2025-12-08T19:01:07.484736",
        "meta_mean_motion": 14.59396259,
        "meta_eccentricity": 0.00077599,
        "meta_inclination": 99.2516,
        "meta_ra_of_asc_node": 78.2755,
        "meta_arg_of_pericenter": 207.638,
        "meta_mean_anomaly": 279.9437,
        "meta_ephemeris_type": 0,
        "meta_classification_type": "U",
        "meta_norad_cat_id": 30629,
        "meta_element_set_no": 999,
        "meta_rev_at_epoch": 97832,
        "meta_bstar": 0.0046078667,
        "meta_mean_motion_dot": 0.00021845,
        "meta_mean_motion_ddot": 0,
        "tle_line1": "1 30629U 99025ANL 25342.79244774  .00021845  00000+0  46079-2 0  9992",
        "tle_line2": "2 30629  99.2516  78.2755 0007759 207.6380 279.9437 14.59396259978325"
      },
      "geometry": {
        "type": "Point",
        "coordinates": [
          -83.57913780855353,
          61.4875688929419
        ]
      }
    },
    {
      "type": "Feature",
      "properties": {
        "norad_id": 30630,
        "name": "FENGYUN 1C DEB",
        "group": "fengyun-1c-debris",
        "lat": 18.672331255276667,
        "lon": -20.559540894774983,
        "alt_km": 813.3183465655065,
        "timestamp": "2025-12-09T09:46:47.923464+00:00",
        "meta_object_name": "FENGYUN 1C DEB",
        "meta_object_id": "1999-025ANM",
        "meta_epoch": "2025-12-08T17:55:51.522240",
        "meta_mean_motion": 14.22355495,
        "meta_eccentricity": 0.00259864,
        "meta_inclination": 99.1728,
        "meta_ra_of_asc_node": 155.6235,
        "meta_arg_of_pericenter": 85.8668,
        "meta_mean_anomaly": 295.2524,
        "meta_ephemeris_type": 0,
        "meta_classification_type": "U",
        "meta_norad_cat_id": 30630,
        "meta_element_set_no": 999,
        "meta_rev_at_epoch": 97156,
        "meta_bstar": 0.0015741701,
        "meta_mean_motion_dot": 3.468e-05,
        "meta_mean_motion_ddot": 0,
        "tle_line1": "1 30630U 99025ANM 25342.74712410  .00003468  00000+0  15742-2 0  9990",
        "tle_line2": "2 30630  99.1728 155.6235 0025986  85.8668 295.2524 14.22355495971565"
      },
      "geometry": {
        "type": "Point",
        "coordinates": [
          -20.559540894774983,
          18.672331255276667
        ]
      }
    },
    {
      "type": "Feature",
      "properties": {
        "norad_id": 30632,
        "name": "FENGYUN 1C DEB",
        "group": "fengyun-1c-debris",
        "lat": -48.402117020992826,
        "lon": -75.54764539165689,
        "alt_km": 684.8134461635855,
        "timestamp": "2025-12-09T09:46:47.923477+00:00",
        "meta_object_name": "FENGYUN 1C DEB",
        "meta_object_id": "1999-025ANP",
        "meta_epoch": "2025-12-08T21:47:11.081760",
        "meta_mean_motion": 14.62524171,
        "meta_eccentricity": 0.00152871,
        "meta_inclination": 98.8239,
        "meta_ra_of_asc_node": 113.9959,
        "meta_arg_of_pericenter": 180.7989,
        "meta_mean_anomaly": 298.5493,
        "meta_ephemeris_type": 0,
        "meta_classification_type": "U",
        "meta_norad_cat_id": 30632,
        "meta_element_set_no": 999,
        "meta_rev_at_epoch": 97635,
        "meta_bstar": 0.0044143222,
        "meta_mean_motion_dot": 0.00022444,
        "meta_mean_motion_ddot": 0,
        "tle_line1": "1 30632U 99025ANP 25342.90776715  .00022444  00000+0  44143-2 0  9990",
        "tle_line2": "2 30632  98.8239 113.9959 0015287 180.7989 298.5493 14.62524171976350"
      },
      "geometry": {
        "type": "Point",
        "coordinates": [
          -75.54764539165689,
          -48.402117020992826
        ]
      }
    },
    {
      "type": "Feature",
      "properties": {
        "norad_id": 30633,
        "name": "FENGYUN 1C DEB",
        "group": "fengyun-1c-debris",
        "lat": 79.91780310950456,
        "lon": 85.06454169726646,
        "alt_km": 965.5289218224971,
        "timestamp": "2025-12-09T09:46:47.923488+00:00",
        "meta_object_name": "FENGYUN 1C DEB",
        "meta_object_id": "1999-025ANQ",
        "meta_epoch": "2025-12-08T14:49:12.971136",
        "meta_mean_motion": 14.04371948,
        "meta_eccentricity": 0.0130551,
        "meta_inclination": 98.4204,
        "meta_ra_of_asc_node": 207.9171,
        "meta_arg_of_pericenter": 271.9476,
        "meta_mean_anomaly": 152.0115,
        "meta_ephemeris_type": 0,
        "meta_classification_type": "U",
        "meta_norad_cat_id": 30633,
        "meta_element_set_no": 999,
        "meta_rev_at_epoch": 95834,
        "meta_bstar": 0.0015391,
        "meta_mean_motion_dot": 2.603e-05,
        "meta_mean_motion_ddot": 0,
        "tle_line1": "1 30633U 99025ANQ 25342.61751124  .00002603  00000+0  15391-2 0  9994",
        "tle_line2": "2 30633  98.4204 207.9171 0130551 271.9476 152.0115 14.04371948958347"
      },
      "geometry": {
        "type": "Point",
        "coordinates": [
          85.06454169726646,
          79.91780310950456
        ]
      }
    },
    {
      "type": "Feature",
      "properties": {
        "norad_id": 30634,
        "name": "FENGYUN 1C DEB",
        "group": "fengyun-1c-debris",
        "lat": 35.51660309558337,
        "lon": -40.591315309057755,
        "alt_km": 826.8182594186346,
        "timestamp": "2025-12-09T09:46:47.923499+00:00",
        "meta_object_name": "FENGYUN 1C DEB",
        "meta_object_id": "1999-025ANR",
        "meta_epoch": "2025-12-08T21:56:34.866816",
        "meta_mean_motion": 14.09663996,
        "meta_eccentricity": 0.01206364,
        "meta_inclination": 99.2925,
        "meta_ra_of_asc_node": 325.6104,
        "meta_arg_of_pericenter": 107.2409,
        "meta_mean_anomaly": 308.6516,
        "meta_ephemeris_type": 0,
        "meta_classification_type": "U",
        "meta_norad_cat_id": 30634,
        "meta_element_set_no": 999,
        "meta_rev_at_epoch": 95563,
        "meta_bstar": 0.0023581029,
        "meta_mean_motion_dot": 4.379e-05,
        "meta_mean_motion_ddot": 0,
        "tle_line1": "1 30634U 99025ANR 25342.91429244  .00004379  00000+0  23581-2 0  9995",
        "tle_line2": "2 30634  99.2925 325.6104 0120636 107.2409 308.6516 14.09663996955636"
      },
      "geometry": {
        "type": "Point",
        "coordinates": [
          -40.591315309057755,
          35.51660309558337
        ]
      }
    },
    {
      "type": "Feature",
      "properties": {
        "norad_id": 30639,
        "name": "FENGYUN 1C DEB",
        "group": "fengyun-1c-debris",
        "lat": 26.563648453545564,
        "lon": -80.18287899459358,
        "alt_km": 818.6988611790657,
        "timestamp": "2025-12-09T09:46:47.923510+00:00",
        "meta_object_name": "FENGYUN 1C DEB",
        "meta_object_id": "1999-025ANW",
        "meta_epoch": "2025-12-08T06:14:09.476160",
        "meta_mean_motion": 14.32220794,
        "meta_eccentricity": 0.00669922,
        "meta_inclination": 99.0204,
        "meta_ra_of_asc_node": 94.0688,
        "meta_arg_of_pericenter": 294.2872,
        "meta_mean_anomaly": 65.1323,
        "meta_ephemeris_type": 0,
        "meta_classification_type": "U",
        "meta_norad_cat_id": 30639,
        "meta_element_set_no": 999,
        "meta_rev_at_epoch": 96655,
        "meta_bstar": 0.0036588497,
        "meta_mean_motion_dot": 0.00010074,
        "meta_mean_motion_ddot": 0,
        "tle_line1": "1 30639U 99025ANW 25342.25983190  .00010074  00000+0  36588-2 0  9992",
        "tle_line2": "2 30639  99.0204  94.0688 0066992 294.2872  65.1323 14.32220794966553"
      },
      "geometry": {
        "type": "Point",
        "coordinates": [
          -80.18287899459358,
          26.563648453545564
        ]
      }
    },
    {
      "type": "Feature",
      "properties": {
        "norad_id": 30640,
        "name": "FENGYUN 1C DEB",
        "group": "fengyun-1c-debris",
        "lat": 37.92652835178499,
        "lon": -118.29295515058718,
        "alt_km": 790.6632758885244,
        "timestamp": "2025-12-09T09:46:47.923521+00:00",
        "meta_object_name": "FENGYUN 1C DEB",
        "meta_object_id": "1999-025ANX",
        "meta_epoch": "2025-12-08T21:31:11.303904",
        "meta_mean_motion": 14.14598624,
        "meta_eccentricity": 0.00812165,
        "meta_inclination": 99.0573,
        "meta_ra_of_asc_node": 54.049,
        "meta_arg_of_pericenter": 111.37,
        "meta_mean_anomaly": 309.5238,
        "meta_ephemeris_type": 0,
        "meta_classification_type": "U",
        "meta_norad_cat_id": 30640,
        "meta_element_set_no": 999,
        "meta_rev_at_epoch": 96391,
        "meta_bstar": 0.0016734292,
        "meta_mean_motion_dot": 3.274e-05,
        "meta_mean_motion_ddot": 0,
        "tle_line1": "1 30640U 99025ANX 25342.89665861  .00003274  00000+0  16734-2 0  9991",
        "tle_line2": "2 30640  99.0573  54.0490 0081216 111.3700 309.5238 14.14598624963913"
      },
      "geometry": {
        "type": "Point",
        "coordinates": [
          -118.29295515058718,
          37.92652835178499
        ]
      }
    }
  ]
}